{
  "type": "FeatureCollection",
  "features": [
    {
      "type": "Feature",
      "properties": {
        "norad_id": 56564,
        "name": "BEIDOU-3 G4 (C62)",
        "group": "gnss",
        "lat": -0.17126132913713107,
        "lon": -69.70697032921555,
        "alt_km": 35791.85273849599,
        "timestamp": "2025-12-04T03:47:54.789497+00:00",
        "meta_object_name": "BEIDOU-3 G4 (C62)",
        "meta_object_id": "2023-066A",
        "meta_epoch": "2025-12-03T19:39:12.350880",
        "meta_mean_motion": 1.0027093,
        "meta_eccentricity": 0.0003318,
        "meta_inclination": 0.8358,
        "meta_ra_of_asc_node": 301.2839,
        "meta_arg_of_pericenter": 235.5216,
        "meta_mean_anomaly": 350.9667,
        "meta_ephemeris_type": 0,
        "meta_classification_type": "U",
        "meta_norad_cat_id": 56564,
        "meta_element_set_no": 999,
        "meta_rev_at_epoch": 943,
        "meta_bstar": 0,
        "meta_mean_motion_dot": -9.3e-07,
        "meta_mean_motion_ddot": 0,
        "tle_line1": "1 56564U 23066A   25337.81889295 -.00000093  00000+0  00000+0 0  9994",
        "tle_line2": "2 56564   0.8358 301.2839 0003318 235.5216 350.9667  1.00270930  9431"
      },
      "geometry": {
        "type": "Point",
        "coordinates": [
          -69.70697032921555,
          -0.17126132913713107
        ]
      }
    },
    {
      "type": "Feature",
      "properties": {
        "norad_id": 56759,
        "name": "NVS-01 (IRNSS-1J)",
        "group": "gnss",
        "lat": 0.3362393123628915,
        "lon": -100.28845485096107,
        "alt_km": 35750.80903019603,
        "timestamp": "2025-12-04T03:47:54.789510+00:00",
        "meta_object_name": "NVS-01 (IRNSS-1J)",
        "meta_object_id": "2023-076A",
        "meta_epoch": "2025-12-03T17:02:21.871104",
        "meta_mean_motion": 1.00267072,
        "meta_eccentricity": 0.0008644,
        "meta_inclination": 2.6421,
        "meta_ra_of_asc_node": 251.9302,
        "meta_arg_of_pericenter": 6.2821,
        "meta_mean_anomaly": 199.7131,
        "meta_ephemeris_type": 0,
        "meta_classification_type": "U",
        "meta_norad_cat_id": 56759,
        "meta_element_set_no": 999,
        "meta_rev_at_epoch": 915,
        "meta_bstar": 0,
        "meta_mean_motion_dot": -3.16e-06,
        "meta_mean_motion_ddot": 0,
        "tle_line1": "1 56759U 23076A   25337.70997536 -.00000316  00000+0  00000+0 0  9995",
        "tle_line2": "2 56759   2.6421 251.9302 0008644   6.2821 199.7131  1.00267072  9153"
      },
      "geometry": {
        "type": "Point",
        "coordinates": [
          -100.28845485096107,
          0.3362393123628915
        ]
      }
    },
    {
      "type": "Feature",
      "properties": {
        "norad_id": 57517,
        "name": "COSMOS 2569 (703K)",
        "group": "gnss",
        "lat": 65.1816814595094,
        "lon": 166.25012309999067,
        "alt_km": 19147.182082508712,
        "timestamp": "2025-12-04T03:47:54.789522+00:00",
        "meta_object_name": "COSMOS 2569 (703K)",
        "meta_object_id": "2023-114A",
        "meta_epoch": "2025-12-01T05:26:50.828352",
        "meta_mean_motion": 2.13103848,
        "meta_eccentricity": 0.0010073,
        "meta_inclination": 65.188,
        "meta_ra_of_asc_node": 79.3026,
        "meta_arg_of_pericenter": 287.0136,
        "meta_mean_anomaly": 72.876,
        "meta_ephemeris_type": 0,
        "meta_classification_type": "U",
        "meta_norad_cat_id": 57517,
        "meta_element_set_no": 999,
        "meta_rev_at_epoch": 1804,
        "meta_bstar": 0,
        "meta_mean_motion_dot": -1.2e-07,
        "meta_mean_motion_ddot": 0,
        "tle_line1": "1 57517U 23114A   25335.22697718 -.00000012  00000+0  00000+0 0  9998",
        "tle_line2": "2 57517  65.1880  79.3026 0010073 287.0136  72.8760  2.13103848 18043"
      },
      "geometry": {
        "type": "Point",
        "coordinates": [
          166.25012309999067,
          65.1816814595094
        ]
      }
    },
    {
      "type": "Feature",
      "properties": {
        "norad_id": 58654,
        "name": "BEIDOU-3 M28 (C50)",
        "group": "gnss",
        "lat": -23.493706071227585,
        "lon": -93.7905109492679,
        "alt_km": 21528.238216560472,
        "timestamp": "2025-12-04T03:47:54.789534+00:00",
        "meta_object_name": "BEIDOU-3 M28 (C50)",
        "meta_object_id": "2023-207A",
        "meta_epoch": "2025-12-02T18:32:49.254720",
        "meta_mean_motion": 1.86229565,
        "meta_eccentricity": 0.00020071,
        "meta_inclination": 55.5759,
        "meta_ra_of_asc_node": 68.9391,
        "meta_arg_of_pericenter": 265.1815,
        "meta_mean_anomaly": 94.7983,
        "meta_ephemeris_type": 0,
        "meta_classification_type": "U",
        "meta_norad_cat_id": 58654,
        "meta_element_set_no": 999,
        "meta_rev_at_epoch": 1318,
        "meta_bstar": 0,
        "meta_mean_motion_dot": -4.9e-07,
        "meta_mean_motion_ddot": 0,
        "tle_line1": "1 58654U 23207A   25336.77279230 -.00000049  00000+0  00000+0 0  9990",
        "tle_line2": "2 58654  55.5759  68.9391 0002007 265.1815  94.7983  1.86229565 13186"
      },
      "geometry": {
        "type": "Point",
        "coordinates": [
          -93.7905109492679,
          -23.493706071227585
        ]
      }
    },
    {
      "type": "Feature",
      "properties": {
        "norad_id": 58655,
        "name": "BEIDOU-3 M26 (C48)",
        "group": "gnss",
        "lat": -12.728757771521005,
        "lon": 59.984208340881985,
        "alt_km": 21530.631819711918,
        "timestamp": "2025-12-04T03:47:54.789545+00:00",
        "meta_object_name": "BEIDOU-3 M26 (C48)",
        "meta_object_id": "2023-207B",
        "meta_epoch": "2025-12-03T02:34:45.227424",
        "meta_mean_motion": 1.86231091,
        "meta_eccentricity": 0.00034591,
        "meta_inclination": 55.5782,
        "meta_ra_of_asc_node": 68.9139,
        "meta_arg_of_pericenter": 250.5367,
        "meta_mean_anomaly": 109.429,
        "meta_ephemeris_type": 0,
        "meta_classification_type": "U",
        "meta_norad_cat_id": 58655,
        "meta_element_set_no": 999,
        "meta_rev_at_epoch": 1317,
        "meta_bstar": 0,
        "meta_mean_motion_dot": -5e-07,
        "meta_mean_motion_ddot": 0,
        "tle_line1": "1 58655U 23207B   25337.10746791 -.00000050  00000+0  00000+0 0  9992",
        "tle_line2": "2 58655  55.5782  68.9139 0003459 250.5367 109.4290  1.86231091 13176"
      },
      "geometry": {
        "type": "Point",
        "coordinates": [
          59.984208340881985,
          -12.728757771521005
        ]
      }
    },
    {
      "type": "Feature",
      "properties": {
        "norad_id": 59598,
        "name": "GSAT0225 (GALILEO 29)",
        "group": "gnss",
        "lat": 39.84459923064212,
        "lon": 142.2773437494701,
        "alt_km": 23220.483206635097,
        "timestamp": "2025-12-04T03:47:54.789559+00:00",
        "meta_object_name": "GSAT0225 (GALILEO 29)",
        "meta_object_id": "2024-079A",
        "meta_epoch": "2025-12-01T03:29:20.871744",
        "meta_mean_motion": 1.70474544,
        "meta_eccentricity": 0.0002155,
        "meta_inclination": 54.9941,
        "meta_ra_of_asc_node": 106.6197,
        "meta_arg_of_pericenter": 171.5653,
        "meta_mean_anomaly": 190.7741,
        "meta_ephemeris_type": 0,
        "meta_classification_type": "U",
        "meta_norad_cat_id": 59598,
        "meta_element_set_no": 999,
        "meta_rev_at_epoch": 994,
        "meta_bstar": 0,
        "meta_mean_motion_dot": 4.1e-07,
        "meta_mean_motion_ddot": 0,
        "tle_line1": "1 59598U 24079A   25335.14538046  .00000041  00000+0  00000+0 0  9990",
        "tle_line2": "2 59598  54.9941 106.6197 0002155 171.5653 190.7741  1.70474544  9948"
      },
      "geometry": {
        "type": "Point",
        "coordinates": [
          142.2773437494701,
          39.84459923064212
        ]
      }
    },
    {
      "type": "Feature",
      "properties": {
        "norad_id": 59600,
        "name": "GSAT0227 (GALILEO 30)",
        "group": "gnss",
        "lat": -45.7861661417803,
        "lon": 60.46399579443465,
        "alt_km": 23237.38104048489,
        "timestamp": "2025-12-04T03:47:54.789571+00:00",
        "meta_object_name": "GSAT0227 (GALILEO 30)",
        "meta_object_id": "2024-079C",
        "meta_epoch": "2025-12-03T16:06:35.879040",
        "meta_mean_motion": 1.70474617,
        "meta_eccentricity": 0.0003404,
        "meta_inclination": 54.9912,
        "meta_ra_of_asc_node": 106.5479,
        "meta_arg_of_pericenter": 113.2328,
        "meta_mean_anomaly": 246.7577,
        "meta_ephemeris_type": 0,
        "meta_classification_type": "U",
        "meta_norad_cat_id": 59600,
        "meta_element_set_no": 999,
        "meta_rev_at_epoch": 1003,
        "meta_bstar": 0,
        "meta_mean_motion_dot": 1.8e-07,
        "meta_mean_motion_ddot": 0,
        "tle_line1": "1 59600U 24079C   25337.67124860  .00000018  00000+0  00000+0 0  9993",
        "tle_line2": "2 59600  54.9912 106.5479 0003404 113.2328 246.7577  1.70474617 10034"
      },
      "geometry": {
        "type": "Point",
        "coordinates": [
          60.46399579443465,
          -45.7861661417803
        ]
      }
    }
  ]
}